STARLINK-32618          
1 62045U 24216P   25211.89973020  .00031246  00000+0  11399-2 0  9991
2 62045  42.9992  69.0558 0001368 264.2540  95.8156 15.27588071 39772
STARLINK-32598          
1 62046U 24216Q   25211.32653431  .00019328  00000+0  70977-3 0  9996
2 62046  42.9953  71.6346 0000681  19.3159 340.7719 15.27592040 39875
STARLINK-32630          
1 62047U 24216R   25211.32186513  .00017143  00000+0  63109-3 0  9991
2 62047  43.0008  79.3753 0002732  65.9048 294.2089 15.27575361 39789
STARLINK-32599          
1 62048U 24216S   25211.91418210  .00021835  00000+0  80011-3 0  9993
2 62048  43.0007  76.0792 0000822 219.7066 140.3726 15.27602357 39845
STARLINK-32473          
1 62049U 24216T   25211.30226052  .00026941  00000+0  98485-3 0  9995
2 62049  42.9957  72.3059 0000669 327.1140  32.9670 15.27583489 38701
STARLINK-32492          
1 62050U 24216U   25211.88848129  .00033391  00000+0  12153-2 0  9999
2 62050  43.0029  75.8912 0002130 263.4378  96.6231 15.27637019 38722
STARLINK-32496          
1 62051U 24216V   25211.00904913  .00022363  00000+0  81894-3 0  9994
2 62051  43.0012  81.3335 0001482 283.9942  76.0744 15.27610707 39737
STARLINK-32495          
1 62052U 24216W   25211.34739762  .00023199  00000+0  84918-3 0  9998
2 62052  43.0024  78.7051 0001334 285.7564  74.3140 15.27607770 38637
STARLINK-32494          
1 62053U 24216X   25211.89619042  .00019646  00000+0  72106-3 0  9995
2 62053  42.9996  75.9449 0001634 270.1712  89.8952 15.27602122 38728
STARLINK-32408          
1 62054U 24216Y   25211.88688163  .00032657  00000+0  11904-2 0  9990
2 62054  42.9988  68.9574 0001128 252.2851 107.7877 15.27596864 38792
STARLINK-32571          
1 62055U 24216Z   25211.91114628  .00021676  00000+0  79424-3 0  9996
2 62055  43.0048  68.2749 0000847 295.0398  65.0365 15.27606999 40069
STARLINK-11465 [DTC]    
1 62057U 24217A   25211.84850148  .00273348  00000+0  21708-2 0  9991
2 62057  53.1570  84.6515 0000694 187.9765 172.1242 15.69895230 40331
STARLINK-11426 [DTC]    
1 62058U 24217B   25211.84359588  .00241921  00000+0  19306-2 0  9997
2 62058  53.1569  84.6189 0000661 178.4023 181.6997 15.69876787 40274
STARLINK-11454 [DTC]    
1 62059U 24217C   25211.87793650  .00218604  00000+0  17602-2 0  9992
2 62059  53.1565  84.8454 0001641  24.0651 336.0443 15.69735903 40344
STARLINK-11473 [DTC]    
1 62060U 24217D   25211.88773090  .00163843  00000+0  13256-2 0  9996
2 62060  53.1566  84.9092 0001184  25.7366 334.3711 15.69802441 40340
STARLINK-11429 [DTC]    
1 62061U 24217E   25211.87303078  .00192595  00000+0  15559-2 0  9995
2 62061  53.1564  84.8129 0001061  23.0861 337.0204 15.69741267 40338
