[{"OBJECT_NAME":"STARLINK-32618","OBJECT_ID":"2024-216P","EPOCH":"2025-07-30T21:35:36.689280","MEAN_MOTION":15.27588071,"ECCENTRICITY":0.0001368,"INCLINATION":42.9992,"RA_OF_ASC_NODE":69.0558,"ARG_OF_PERICENTER":264.254,"MEAN_ANOMALY":95.8156,"EPHEMERIS_TYPE":0,"CLASSIFICATION_TYPE":"U","NORAD_CAT_ID":62045,"ELEMENT_SET_NO":999,"REV_AT_EPOCH":3977,"BSTAR":0.0011399,"MEAN_MOTION_DOT":0.00031246,"MEAN_MOTION_DDOT":0},{"OBJECT_NAME":"STARLINK-32598","OBJECT_ID":"2024-216Q","EPOCH":"2025-07-30T07:50:12.564384","MEAN_MOTION":15.2759204,"ECCENTRICITY":6.81e-5,"INCLINATION":42.9953,"RA_OF_ASC_NODE":71.6346,"ARG_OF_PERICENTER":19.3159,"MEAN_ANOMALY":340.7719,"EPHEMERIS_TYPE":0,"CLASSIFICATION_TYPE":"U","NORAD_CAT_ID":62046,"ELEMENT_SET_NO":999,"REV_AT_EPOCH":3987,"BSTAR":0.00070977,"MEAN_MOTION_DOT":0.00019328,"MEAN_MOTION_DDOT":0},{"OBJECT_NAME":"STARLINK-32630","OBJECT_ID":"2024-216R","EPOCH":"2025-07-30T07:43:29.147232","MEAN_MOTION":15.27575361,"ECCENTRICITY":0.0002732,"INCLINATION":43.0008,"RA_OF_ASC_NODE":79.3753,"ARG_OF_PERICENTER":65.9048,"MEAN_ANOMALY":294.2089,"EPHEMERIS_TYPE":0,"CLASSIFICATION_TYPE":"U","NORAD_CAT_ID":62047,"ELEMENT_SET_NO":999,"REV_AT_EPOCH":3978,"BSTAR":0.00063109,"MEAN_MOTION_DOT":0.00017143,"MEAN_MOTION_DDOT":0},{"OBJECT_NAME":"STARLINK-32599","OBJECT_ID":"2024-216S","EPOCH":"2025-07-30T21:56:25.333440","MEAN_MOTION":15.27602357,"ECCENTRICITY":8.22e-5,"INCLINATION":43.0007,"RA_OF_ASC_NODE":76.0792,"ARG_OF_PERICENTER":219.7066,"MEAN_ANOMALY":140.3726,"EPHEMERIS_TYPE":0,"CLASSIFICATION_TYPE":"U","NORAD_CAT_ID":62048,"ELEMENT_SET_NO":999,"REV_AT_EPOCH":3984,"BSTAR":0.00080011,"MEAN_MOTION_DOT":0.00021835,"MEAN_MOTION_DDOT":0},{"OBJECT_NAME":"STARLINK-32473","OBJECT_ID":"2024-216T","EPOCH":"2025-07-30T07:15:15.308928","MEAN_MOTION":15.27583489,"ECCENTRICITY":6.69e-5,"INCLINATION":42.9957,"RA_OF_ASC_NODE":72.3059,"ARG_OF_PERICENTER":327.114,"MEAN_ANOMALY":32.967,"EPHEMERIS_TYPE":0,"CLASSIFICATION_TYPE":"U","NORAD_CAT_ID":62049,"ELEMENT_SET_NO":999,"REV_AT_EPOCH":3870,"BSTAR":0.00098485,"MEAN_MOTION_DOT":0.00026941,"MEAN_MOTION_DDOT":0},{"OBJECT_NAME":"STARLINK-32492","OBJECT_ID":"2024-216U","EPOCH":"2025-07-30T21:19:24.783456","MEAN_MOTION":15.27637019,"ECCENTRICITY":0.000213,"INCLINATION":43.0029,"RA_OF_ASC_NODE":75.8912,"ARG_OF_PERICENTER":263.4378,"MEAN_ANOMALY":96.6231,"EPHEMERIS_TYPE":0,"CLASSIFICATION_TYPE":"U","NORAD_CAT_ID":62050,"ELEMENT_SET_NO":999,"REV_AT_EPOCH":3872,"BSTAR":0.0012153,"MEAN_MOTION_DOT":0.00033391,"MEAN_MOTION_DDOT":0},{"OBJECT_NAME":"STARLINK-32496","OBJECT_ID":"2024-216V","EPOCH":"2025-07-30T00:13:01.844832","MEAN_MOTION":15.27610707,"ECCENTRICITY":0.0001482,"INCLINATION":43.0012,"RA_OF_ASC_NODE":81.3335,"ARG_OF_PERICENTER":283.9942,"MEAN_ANOMALY":76.0744,"EPHEMERIS_TYPE":0,"CLASSIFICATION_TYPE":"U","NORAD_CAT_ID":62051,"ELEMENT_SET_NO":999,"REV_AT_EPOCH":3973,"BSTAR":0.00081894,"MEAN_MOTION_DOT":0.00022363,"MEAN_MOTION_DDOT":0},{"OBJECT_NAME":"STARLINK-32495","OBJECT_ID":"2024-216W","EPOCH":"2025-07-30T08:20:15.154368","MEAN_MOTION":15.2760777,"ECCENTRICITY":0.0001334,"INCLINATION":43.0024,"RA_OF_ASC_NODE":78.7051,"ARG_OF_PERICENTER":285.7564,"MEAN_ANOMALY":74.314,"EPHEMERIS_TYPE":0,"CLASSIFICATION_TYPE":"U","NORAD_CAT_ID":62052,"ELEMENT_SET_NO":999,"REV_AT_EPOCH":3863,"BSTAR":0.00084918,"MEAN_MOTION_DOT":0.00023199,"MEAN_MOTION_DDOT":0},{"OBJECT_NAME":"STARLINK-32494","OBJECT_ID":"2024-216X","EPOCH":"2025-07-30T21:30:30.852288","MEAN_MOTION":15.27602122,"ECCENTRICITY":0.0001634,"INCLINATION":42.9996,"RA_OF_ASC_NODE":75.9449,"ARG_OF_PERICENTER":270.1712,"MEAN_ANOMALY":89.8952,"EPHEMERIS_TYPE":0,"CLASSIFICATION_TYPE":"U","NORAD_CAT_ID":62053,"ELEMENT_SET_NO":999,"REV_AT_EPOCH":3872,"BSTAR":0.00072106,"MEAN_MOTION_DOT":0.00019646,"MEAN_MOTION_DDOT":0},{"OBJECT_NAME":"STARLINK-32408","OBJECT_ID":"2024-216Y","EPOCH":"2025-07-30T21:17:06.572832","MEAN_MOTION":15.27596864,"ECCENTRICITY":0.0001128,"INCLINATION":42.9988,"RA_OF_ASC_NODE":68.9574,"ARG_OF_PERICENTER":252.2851,"MEAN_ANOMALY":107.7877,"EPHEMERIS_TYPE":0,"CLASSIFICATION_TYPE":"U","NORAD_CAT_ID":62054,"ELEMENT_SET_NO":999,"REV_AT_EPOCH":3879,"BSTAR":0.0011904,"MEAN_MOTION_DOT":0.00032657,"MEAN_MOTION_DDOT":0},{"OBJECT_NAME":"STARLINK-32571","OBJECT_ID":"2024-216Z","EPOCH":"2025-07-30T21:52:03.038592","MEAN_MOTION":15.27606999,"ECCENTRICITY":8.47e-5,"INCLINATION":43.0048,"RA_OF_ASC_NODE":68.2749,"ARG_OF_PERICENTER":295.0398,"MEAN_ANOMALY":65.0365,"EPHEMERIS_TYPE":0,"CLASSIFICATION_TYPE":"U","NORAD_CAT_ID":62055,"ELEMENT_SET_NO":999,"REV_AT_EPOCH":4006,"BSTAR":0.00079424,"MEAN_MOTION_DOT":0.00021676,"MEAN_MOTION_DDOT":0},{"OBJECT_NAME":"STARLINK-11465 [DTC]","OBJECT_ID":"2024-217A","EPOCH":"2025-07-30T20:21:50.527872","MEAN_MOTION":15.6989523,"ECCENTRICITY":6.94e-5,"INCLINATION":53.157,"RA_OF_ASC_NODE":84.6515,"ARG_OF_PERICENTER":187.9765,"MEAN_ANOMALY":172.1242,"EPHEMERIS_TYPE":0,"CLASSIFICATION_TYPE":"U","NORAD_CAT_ID":62057,"ELEMENT_SET_NO":999,"REV_AT_EPOCH":4033,"BSTAR":0.0021708,"MEAN_MOTION_DOT":0.00273348,"MEAN_MOTION_DDOT":0},{"OBJECT_NAME":"STARLINK-11426 [DTC]","OBJECT_ID":"2024-217B","EPOCH":"2025-07-30T20:14:46.684032","MEAN_MOTION":15.69876787,"ECCENTRICITY":6.61e-5,"INCLINATION":53.1569,"RA_OF_ASC_NODE":84.6189,"ARG_OF_PERICENTER":178.4023,"MEAN_ANOMALY":181.6997,"EPHEMERIS_TYPE":0,"CLASSIFICATION_TYPE":"U","NORAD_CAT_ID":62058,"ELEMENT_SET_NO":999,"REV_AT_EPOCH":4027,"BSTAR":0.0019306,"MEAN_MOTION_DOT":0.00241921,"MEAN_MOTION_DDOT":0},{"OBJECT_NAME":"STARLINK-11454 [DTC]","OBJECT_ID":"2024-217C","EPOCH":"2025-07-30T21:04:13.713600","MEAN_MOTION":15.69735903,"ECCENTRICITY":0.0001641,"INCLINATION":53.1565,"RA_OF_ASC_NODE":84.8454,"ARG_OF_PERICENTER":24.0651,"MEAN_ANOMALY":336.0443,"EPHEMERIS_TYPE":0,"CLASSIFICATION_TYPE":"U","NORAD_CAT_ID":62059,"ELEMENT_SET_NO":999,"REV_AT_EPOCH":4034,"BSTAR":0.0017602,"MEAN_MOTION_DOT":0.00218604,"MEAN_MOTION_DDOT":0},{"OBJECT_NAME":"STARLINK-11473 [DTC]","OBJECT_ID":"2024-217D","EPOCH":"2025-07-30T21:18:19.949760","MEAN_MOTION":15.69802441,"ECCENTRICITY":0.0001184,"INCLINATION":53.1566,"RA_OF_ASC_NODE":84.9092,"ARG_OF_PERICENTER":25.7366,"MEAN_ANOMALY":334.3711,"EPHEMERIS_TYPE":0,"CLASSIFICATION_TYPE":"U","NORAD_CAT_ID":62060,"ELEMENT_SET_NO":999,"REV_AT_EPOCH":4034,"BSTAR":0.0013256,"MEAN_MOTION_DOT":0.00163843,"MEAN_MOTION_DDOT":0},{"OBJECT_NAME":"STARLINK-11429 [DTC]","OBJECT_ID":"2024-217E","EPOCH":"2025-07-30T20:57:09.859392","MEAN_MOTION":15.69741267,"ECCENTRICITY":0.0001061,"INCLINATION":53.1564,"RA_OF_ASC_NODE":84.8129,"ARG_OF_PERICENTER":23.0861,"MEAN_ANOMALY":337.0204,"EPHEMERIS_TYPE":0,"CLASSIFICATION_TYPE":"U","NORAD_CAT_ID":62061,"ELEMENT_SET_NO":999,"REV_AT_EPOCH":4033,"BSTAR":0.0015559,"MEAN_MOTION_DOT":0.00192595,"MEAN_MOTION_DDOT":0}]
